[
    {
        "OBJECT_NAME": "STARLINK-30149",
        "OBJECT_ID": "2023-113Y",
        "EPOCH": "2023-11-14T23:25:54.110208",
        "MEAN_MOTION": 15.02561372,
        "ECCENTRICITY": 5.34e-5,
        "INCLINATION": 43.0003,
        "RA_OF_ASC_NODE": 292.654,
        "ARG_OF_PERICENTER": 241.5079,
        "MEAN_ANOMALY": 118.571,
        "EPHEMERIS_TYPE": 0,
        "CLASSIFICATION_TYPE": "U",
        "NORAD_CAT_ID": 57516,
        "ELEMENT_SET_NO": 999,
        "REV_AT_EPOCH": 1633,
        "BSTAR": -0.00036952,
        "MEAN_MOTION_DOT": -5.195e-5,
        "MEAN_MOTION_DDOT": 0
    },
    {
        "OBJECT_NAME": "STARLINK-30259",
        "OBJECT_ID": "2023-115A",
        "EPOCH": "2023-11-15T01:02:09.931200",
        "MEAN_MOTION": 15.02536652,
        "ECCENTRICITY": 0.0001288,
        "INCLINATION": 43.0023,
        "RA_OF_ASC_NODE": 280.0433,
        "ARG_OF_PERICENTER": 261.3776,
        "MEAN_ANOMALY": 98.6921,
        "EPHEMERIS_TYPE": 0,
        "CLASSIFICATION_TYPE": "U",
        "NORAD_CAT_ID": 57521,
        "ELEMENT_SET_NO": 999,
        "REV_AT_EPOCH": 1621,
        "BSTAR": 0.0002623,
        "MEAN_MOTION_DOT": 3.341e-5,
        "MEAN_MOTION_DDOT": 0
    },
    {
        "OBJECT_NAME": "STARLINK-30256",
        "OBJECT_ID": "2023-115B",
        "EPOCH": "2023-11-14T23:21:37.770912",
        "MEAN_MOTION": 15.02534252,
        "ECCENTRICITY": 9.45e-5,
        "INCLINATION": 43.0029,
        "RA_OF_ASC_NODE": 280.372,
        "ARG_OF_PERICENTER": 262.9183,
        "MEAN_ANOMALY": 97.1552,
        "EPHEMERIS_TYPE": 0,
        "CLASSIFICATION_TYPE": "U",
        "NORAD_CAT_ID": 57522,
        "ELEMENT_SET_NO": 999,
        "REV_AT_EPOCH": 1594,
        "BSTAR": -8.6115e-5,
        "MEAN_MOTION_DOT": -1.366e-5,
        "MEAN_MOTION_DDOT": 0
    },
    {
        "OBJECT_NAME": "STARLINK-30261",
        "OBJECT_ID": "2023-115C",
        "EPOCH": "2023-11-14T21:41:06.332928",
        "MEAN_MOTION": 15.02539969,
        "ECCENTRICITY": 8.51e-5,
        "INCLINATION": 43.0027,
        "RA_OF_ASC_NODE": 280.7079,
        "ARG_OF_PERICENTER": 270.3096,
        "MEAN_ANOMALY": 89.7649,
        "EPHEMERIS_TYPE": 0,
        "CLASSIFICATION_TYPE": "U",
        "NORAD_CAT_ID": 57523,
        "ELEMENT_SET_NO": 999,
        "REV_AT_EPOCH": 1508,
        "BSTAR": 0.0011501,
        "MEAN_MOTION_DOT": 0.00015368,
        "MEAN_MOTION_DDOT": 0
    },
    {
        "OBJECT_NAME": "STARLINK-30260",
        "OBJECT_ID": "2023-115D",
        "EPOCH": "2023-11-14T21:36:18.720288",
        "MEAN_MOTION": 15.02535209,
        "ECCENTRICITY": 0.0001125,
        "INCLINATION": 43.0002,
        "RA_OF_ASC_NODE": 280.7001,
        "ARG_OF_PERICENTER": 251.1893,
        "MEAN_ANOMALY": 108.8827,
        "EPHEMERIS_TYPE": 0,
        "CLASSIFICATION_TYPE": "U",
        "NORAD_CAT_ID": 57524,
        "ELEMENT_SET_NO": 999,
        "REV_AT_EPOCH": 1508,
        "BSTAR": 2.224e-6,
        "MEAN_MOTION_DOT": -1.73e-6,
        "MEAN_MOTION_DDOT": 0
    },
    {
        "OBJECT_NAME": "STARLINK-30253",
        "OBJECT_ID": "2023-115E",
        "EPOCH": "2023-11-14T22:57:38.842848",
        "MEAN_MOTION": 15.02527975,
        "ECCENTRICITY": 0.0001187,
        "INCLINATION": 43.0024,
        "RA_OF_ASC_NODE": 280.2505,
        "ARG_OF_PERICENTER": 251.3009,
        "MEAN_ANOMALY": 108.7705,
        "EPHEMERIS_TYPE": 0,
        "CLASSIFICATION_TYPE": "U",
        "NORAD_CAT_ID": 57525,
        "ELEMENT_SET_NO": 999,
        "REV_AT_EPOCH": 1509,
        "BSTAR": 0.00019218,
        "MEAN_MOTION_DOT": 2.393e-5,
        "MEAN_MOTION_DDOT": 0
    },
    {
        "OBJECT_NAME": "STARLINK-30257",
        "OBJECT_ID": "2023-115F",
        "EPOCH": "2023-11-14T23:02:27.392064",
        "MEAN_MOTION": 15.0253999,
        "ECCENTRICITY": 9.27e-5,
        "INCLINATION": 43.0021,
        "RA_OF_ASC_NODE": 280.2993,
        "ARG_OF_PERICENTER": 269.5907,
        "MEAN_ANOMALY": 90.4829,
        "EPHEMERIS_TYPE": 0,
        "CLASSIFICATION_TYPE": "U",
        "NORAD_CAT_ID": 57526,
        "ELEMENT_SET_NO": 999,
        "REV_AT_EPOCH": 1509,
        "BSTAR": 0.00085237,
        "MEAN_MOTION_DOT": 0.0001133,
        "MEAN_MOTION_DDOT": 0
    },
    {
        "OBJECT_NAME": "STARLINK-30250",
        "OBJECT_ID": "2023-115G",
        "EPOCH": "2023-11-14T22:52:51.698496",
        "MEAN_MOTION": 15.02540867,
        "ECCENTRICITY": 9.76e-5,
        "INCLINATION": 43.0025,
        "RA_OF_ASC_NODE": 280.2366,
        "ARG_OF_PERICENTER": 265.9334,
        "MEAN_ANOMALY": 94.1397,
        "EPHEMERIS_TYPE": 0,
        "CLASSIFICATION_TYPE": "U",
        "NORAD_CAT_ID": 57527,
        "ELEMENT_SET_NO": 999,
        "REV_AT_EPOCH": 1599,
        "BSTAR": 0.00061621,
        "MEAN_MOTION_DOT": 8.131e-5,
        "MEAN_MOTION_DDOT": 0
    },
    {
        "OBJECT_NAME": "STARLINK-30269",
        "OBJECT_ID": "2023-115H",
        "EPOCH": "2023-11-14T22:33:41.233248",
        "MEAN_MOTION": 15.02540505,
        "ECCENTRICITY": 5.64e-5,
        "INCLINATION": 43.0028,
        "RA_OF_ASC_NODE": 280.1502,
        "ARG_OF_PERICENTER": 302.7935,
        "MEAN_ANOMALY": 57.2853,
        "EPHEMERIS_TYPE": 0,
        "CLASSIFICATION_TYPE": "U",
        "NORAD_CAT_ID": 57528,
        "ELEMENT_SET_NO": 999,
        "REV_AT_EPOCH": 1620,
        "BSTAR": 0.00013145,
        "MEAN_MOTION_DOT": 1.573e-5,
        "MEAN_MOTION_DDOT": 0
    },
    {
        "OBJECT_NAME": "STARLINK-30266",
        "OBJECT_ID": "2023-115J",
        "EPOCH": "2023-11-14T22:19:17.983200",
        "MEAN_MOTION": 15.02532389,
        "ECCENTRICITY": 7.78e-5,
        "INCLINATION": 43.0023,
        "RA_OF_ASC_NODE": 280.0598,
        "ARG_OF_PERICENTER": 278.3328,
        "MEAN_ANOMALY": 81.7426,
        "EPHEMERIS_TYPE": 0,
        "CLASSIFICATION_TYPE": "U",
        "NORAD_CAT_ID": 57529,
        "ELEMENT_SET_NO": 999,
        "REV_AT_EPOCH": 1509,
        "BSTAR": -6.0225e-5,
        "MEAN_MOTION_DOT": -1.017e-5,
        "MEAN_MOTION_DDOT": 0
    },
    {
        "OBJECT_NAME": "STARLINK-30270",
        "OBJECT_ID": "2023-115K",
        "EPOCH": "2023-11-14T22:28:54.137280",
        "MEAN_MOTION": 15.02518202,
        "ECCENTRICITY": 0.0001136,
        "INCLINATION": 43.0025,
        "RA_OF_ASC_NODE": 280.1175,
        "ARG_OF_PERICENTER": 272.9525,
        "MEAN_ANOMALY": 87.1187,
        "EPHEMERIS_TYPE": 0,
        "CLASSIFICATION_TYPE": "U",
        "NORAD_CAT_ID": 57530,
        "ELEMENT_SET_NO": 999,
        "REV_AT_EPOCH": 1620,
        "BSTAR": -0.00032676,
        "MEAN_MOTION_DOT": -4.613e-5,
        "MEAN_MOTION_DDOT": 0
    },
    {
        "OBJECT_NAME": "STARLINK-30268",
        "OBJECT_ID": "2023-115L",
        "EPOCH": "2023-11-15T01:59:30.385248",
        "MEAN_MOTION": 15.02576255,
        "ECCENTRICITY": 0.0001318,
        "INCLINATION": 43.001,
        "RA_OF_ASC_NODE": 279.4917,
        "ARG_OF_PERICENTER": 185.5156,
        "MEAN_ANOMALY": 174.5672,
        "EPHEMERIS_TYPE": 0,
        "CLASSIFICATION_TYPE": "U",
        "NORAD_CAT_ID": 57531,
        "ELEMENT_SET_NO": 999,
        "REV_AT_EPOCH": 1606,
        "BSTAR": 0.0021014,
        "MEAN_MOTION_DOT": 0.00028328,
        "MEAN_MOTION_DDOT": 0
    },
    {
        "OBJECT_NAME": "STARLINK-30251",
        "OBJECT_ID": "2023-115M",
        "EPOCH": "2023-11-14T22:43:17.014944",
        "MEAN_MOTION": 15.02523725,
        "ECCENTRICITY": 9.21e-5,
        "INCLINATION": 43.0014,
        "RA_OF_ASC_NODE": 280.1948,
        "ARG_OF_PERICENTER": 252.475,
        "MEAN_ANOMALY": 107.5991,
        "EPHEMERIS_TYPE": 0,
        "CLASSIFICATION_TYPE": "U",
        "NORAD_CAT_ID": 57532,
        "ELEMENT_SET_NO": 999,
        "REV_AT_EPOCH": 1509,
        "BSTAR": -0.00011206,
        "MEAN_MOTION_DOT": -1.716e-5,
        "MEAN_MOTION_DDOT": 0
    },
    {
        "OBJECT_NAME": "STARLINK-30254",
        "OBJECT_ID": "2023-115N",
        "EPOCH": "2023-11-15T06:00:02.000160",
        "MEAN_MOTION": 15.82527337,
        "ECCENTRICITY": 0.0024325,
        "INCLINATION": 42.9972,
        "RA_OF_ASC_NODE": 243.7226,
        "ARG_OF_PERICENTER": 195.9119,
        "MEAN_ANOMALY": 74.5128,
        "EPHEMERIS_TYPE": 0,
        "CLASSIFICATION_TYPE": "U",
        "NORAD_CAT_ID": 57533,
        "ELEMENT_SET_NO": 999,
        "REV_AT_EPOCH": 1648,
        "BSTAR": 0.0015035,
        "MEAN_MOTION_DOT": 0.0034361,
        "MEAN_MOTION_DDOT": 0
    },
    {
        "OBJECT_NAME": "STARLINK-30264",
        "OBJECT_ID": "2023-115P",
        "EPOCH": "2023-11-15T03:01:35.660352",
        "MEAN_MOTION": 15.1595025,
        "ECCENTRICITY": 0.0001341,
        "INCLINATION": 43.0002,
        "RA_OF_ASC_NODE": 272.1629,
        "ARG_OF_PERICENTER": 252.0128,
        "MEAN_ANOMALY": 108.0573,
        "EPHEMERIS_TYPE": 0,
        "CLASSIFICATION_TYPE": "U",
        "NORAD_CAT_ID": 57534,
        "ELEMENT_SET_NO": 999,
        "REV_AT_EPOCH": 1641,
        "BSTAR": -0.00042026,
        "MEAN_MOTION_DOT": -8.431e-5,
        "MEAN_MOTION_DDOT": 0
    },
    {
        "OBJECT_NAME": "STARLINK-30262",
        "OBJECT_ID": "2023-115Q",
        "EPOCH": "2023-11-14T22:09:42.587712",
        "MEAN_MOTION": 15.02528798,
        "ECCENTRICITY": 8.12e-5,
        "INCLINATION": 43.0017,
        "RA_OF_ASC_NODE": 280.0066,
        "ARG_OF_PERICENTER": 265.3881,
        "MEAN_ANOMALY": 94.6869,
        "EPHEMERIS_TYPE": 0,
        "CLASSIFICATION_TYPE": "U",
        "NORAD_CAT_ID": 57535,
        "ELEMENT_SET_NO": 999,
        "REV_AT_EPOCH": 1509,
        "BSTAR": -3.6012e-5,
        "MEAN_MOTION_DOT": -6.9e-6,
        "MEAN_MOTION_DDOT": 0
    }
]
